{"type": "FeatureCollection", "features": [{"type": "Feature", "properties": {"norad_id": 28890, "name": "BEIJING 1", "group": "dmc", "lat": -80.60224539350128, "lon": 174.39605745333242, "alt_km": 696.5138933160597, "timestamp": "2025-12-11T10:53:15.551928+00:00", "meta": {"OBJECT_NAME": "BEIJING 1", "OBJECT_ID": "2005-043A", "EPOCH": "2025-12-11T04:42:53.769024", "MEAN_MOTION": 14.63363331, "ECCENTRICITY": 0.0015221, "INCLINATION": 98.2656, "RA_OF_ASC_NODE": 112.6995, "ARG_OF_PERICENTER": 145.7136, "MEAN_ANOMALY": 214.5051, "EPHEMERIS_TYPE": 0, "CLASSIFICATION_TYPE": "U", "NORAD_CAT_ID": 28890, "ELEMENT_SET_NO": 999, "REV_AT_EPOCH": 7315, "BSTAR": 0.00011979, "MEAN_MOTION_DOT": 5.71e-06, "MEAN_MOTION_DDOT": 0}, "tle": {"line1": "1 28890U 05043A   25345.19645566  .00000571  00000+0  11979-3 0  9992", "line2": "2 28890  98.2656 112.6995 0015221 145.7136 214.5051 14.63363331 73153"}}, "geometry": {"type": "Point", "coordinates": [174.39605745333242, -80.60224539350128]}}, {"type": "Feature", "properties": {"norad_id": 33320, "name": "HUANJING 1A (HJ-1A)", "group": "dmc", "lat": -29.076519784450696, "lon": 149.51721125938357, "alt_km": 638.6154866223251, "timestamp": "2025-12-11T10:53:15.551972+00:00", "meta": {"OBJECT_NAME": "HUANJING 1A (HJ-1A)", "OBJECT_ID": "2008-041A", "EPOCH": "2025-12-11T05:05:28.648032", "MEAN_MOTION": 14.83388594, "ECCENTRICITY": 0.0020333, "INCLINATION": 97.6547, "RA_OF_ASC_NODE": 333.5746, "ARG_OF_PERICENTER": 39.2916, "MEAN_ANOMALY": 320.977, "EPHEMERIS_TYPE": 0, "CLASSIFICATION_TYPE": "U", "NORAD_CAT_ID": 33320, "ELEMENT_SET_NO": 999, "REV_AT_EPOCH": 93053, "BSTAR": 0.00037616, "MEAN_MOTION_DOT": 3.046e-05, "MEAN_MOTION_DDOT": 0}, "tle": {"line1": "1 33320U 08041A   25345.21213713  .00003046  00000+0  37616-3 0  9991", "line2": "2 33320  97.6547 333.5746 0020333  39.2916 320.9770 14.83388594930534"}}, "geometry": {"type": "Point", "coordinates": [149.51721125938357, -29.076519784450696]}}, {"type": "Feature", "properties": {"norad_id": 33321, "name": "HUANJING 1B (HJ-1B)", "group": "dmc", "lat": 71.2979550690678, "lon": -45.85550505024546, "alt_km": 586.9641315440285, "timestamp": "2025-12-11T10:53:15.551989+00:00", "meta": {"OBJECT_NAME": "HUANJING 1B (HJ-1B)", "OBJECT_ID": "2008-041B", "EPOCH": "2025-12-11T05:42:11.818656", "MEAN_MOTION": 14.82814578, "ECCENTRICITY": 0.0038282, "INCLINATION": 97.6403, "RA_OF_ASC_NODE": 337.2997, "ARG_OF_PERICENTER": 80.3351, "MEAN_ANOMALY": 280.2185, "EPHEMERIS_TYPE": 0, "CLASSIFICATION_TYPE": "U", "NORAD_CAT_ID": 33321, "ELEMENT_SET_NO": 999, "REV_AT_EPOCH": 93055, "BSTAR": 0.00022962, "MEAN_MOTION_DOT": 1.83e-05, "MEAN_MOTION_DDOT": 0}, "tle": {"line1": "1 33321U 08041B   25345.23763679  .00001830  00000+0  22962-3 0  9992", "line2": "2 33321  97.6403 337.2997 0038282  80.3351 280.2185 14.82814578930552"}}, "geometry": {"type": "Point", "coordinates": [-45.85550505024546, 71.2979550690678]}}, {"type": "Feature", "properties": {"norad_id": 33446, "name": "YAOGAN-4", "group": "dmc", "lat": -14.727053810088071, "lon": -82.33809484584937, "alt_km": 616.4295143759891, "timestamp": "2025-12-11T10:53:15.552002+00:00", "meta": {"OBJECT_NAME": "YAOGAN-4", "OBJECT_ID": "2008-061A", "EPOCH": "2025-12-10T18:45:27.285984", "MEAN_MOTION": 14.82672885, "ECCENTRICITY": 0.00137394, "INCLINATION": 97.9179, "RA_OF_ASC_NODE": 274.9001, "ARG_OF_PERICENTER": 330.1294, "MEAN_ANOMALY": 29.9134, "EPHEMERIS_TYPE": 0, "CLASSIFICATION_TYPE": "U", "NORAD_CAT_ID": 33446, "ELEMENT_SET_NO": 999, "REV_AT_EPOCH": 91774, "BSTAR": 0.00030466827, "MEAN_MOTION_DOT": 2.407e-05, "MEAN_MOTION_DDOT": 0}, "tle": {"line1": "1 33446U 08061A   25344.78156581  .00002407  00000+0  30467-3 0  9999", "line2": "2 33446  97.9179 274.9001 0013739 330.1294  29.9134 14.82672885917749"}}, "geometry": {"type": "Point", "coordinates": [-82.33809484584937, -14.727053810088071]}}, {"type": "Feature", "properties": {"norad_id": 35681, "name": "DEIMOS-1", "group": "dmc", "lat": 28.807271275117813, "lon": -29.6080291270772, "alt_km": 643.3308058694574, "timestamp": "2025-12-11T10:53:15.552015+00:00", "meta": {"OBJECT_NAME": "DEIMOS-1", "OBJECT_ID": "2009-041A", "EPOCH": "2025-12-11T05:19:18.972768", "MEAN_MOTION": 14.7494851, "ECCENTRICITY": 0.0002755, "INCLINATION": 97.7151, "RA_OF_ASC_NODE": 145.8956, "ARG_OF_PERICENTER": 81.8144, "MEAN_ANOMALY": 278.3378, "EPHEMERIS_TYPE": 0, "CLASSIFICATION_TYPE": "U", "NORAD_CAT_ID": 35681, "ELEMENT_SET_NO": 999, "REV_AT_EPOCH": 87917, "BSTAR": 0.00017264, "MEAN_MOTION_DOT": 1.113e-05, "MEAN_MOTION_DDOT": 0}, "tle": {"line1": "1 35681U 09041A   25345.22174737  .00001113  00000+0  17264-3 0  9997", "line2": "2 35681  97.7151 145.8956 0002755  81.8144 278.3378 14.74948510879171"}}, "geometry": {"type": "Point", "coordinates": [-29.6080291270772, 28.807271275117813]}}, {"type": "Feature", "properties": {"norad_id": 35683, "name": "UK-DMC 2", "group": "dmc", "lat": 16.970498699815426, "lon": -57.19276347036655, "alt_km": 643.3503913158929, "timestamp": "2025-12-11T10:53:15.552032+00:00", "meta": {"OBJECT_NAME": "UK-DMC 2", "OBJECT_ID": "2009-041C", "EPOCH": "2025-12-11T05:16:13.164384", "MEAN_MOTION": 14.75616907, "ECCENTRICITY": 0.0001426, "INCLINATION": 97.8563, "RA_OF_ASC_NODE": 120.1649, "ARG_OF_PERICENTER": 97.4776, "MEAN_ANOMALY": 262.6596, "EPHEMERIS_TYPE": 0, "CLASSIFICATION_TYPE": "U", "NORAD_CAT_ID": 35683, "ELEMENT_SET_NO": 999, "REV_AT_EPOCH": 87884, "BSTAR": 0.00027299, "MEAN_MOTION_DOT": 1.814e-05, "MEAN_MOTION_DDOT": 0}, "tle": {"line1": "1 35683U 09041C   25345.21959681  .00001814  00000+0  27299-3 0  9994", "line2": "2 35683  97.8563 120.1649 0001426  97.4776 262.6596 14.75616907878848"}}, "geometry": {"type": "Point", "coordinates": [-57.19276347036655, 16.970498699815426]}}, {"type": "Feature", "properties": {"norad_id": 40715, "name": "DMC3-FM1", "group": "dmc", "lat": 13.439897393804452, "lon": 34.53806143224657, "alt_km": 616.5197264390845, "timestamp": "2025-12-11T10:53:15.552043+00:00", "meta": {"OBJECT_NAME": "DMC3-FM1", "OBJECT_ID": "2015-032A", "EPOCH": "2025-12-11T05:17:27.712032", "MEAN_MOTION": 14.85436286, "ECCENTRICITY": 0.0004803, "INCLINATION": 97.669, "RA_OF_ASC_NODE": 212.4682, "ARG_OF_PERICENTER": 328.2196, "MEAN_ANOMALY": 31.8729, "EPHEMERIS_TYPE": 0, "CLASSIFICATION_TYPE": "U", "NORAD_CAT_ID": 40715, "ELEMENT_SET_NO": 999, "REV_AT_EPOCH": 56200, "BSTAR": 0.00012956, "MEAN_MOTION_DOT": 1.065e-05, "MEAN_MOTION_DDOT": 0}, "tle": {"line1": "1 40715U 15032A   25345.22045963  .00001065  00000+0  12956-3 0  9995", "line2": "2 40715  97.6690 212.4682 0004803 328.2196  31.8729 14.85436286562007"}}, "geometry": {"type": "Point", "coordinates": [34.53806143224657, 13.439897393804452]}}, {"type": "Feature", "properties": {"norad_id": 40716, "name": "DMC3-FM2", "group": "dmc", "lat": 45.54729318688327, "lon": -153.76426698707954, "alt_km": 607.3148121276436, "timestamp": "2025-12-11T10:53:15.552055+00:00", "meta": {"OBJECT_NAME": "DMC3-FM2", "OBJECT_ID": "2015-032B", "EPOCH": "2025-12-11T04:12:51.587712", "MEAN_MOTION": 14.85435252, "ECCENTRICITY": 0.0005494, "INCLINATION": 97.6745, "RA_OF_ASC_NODE": 213.8677, "ARG_OF_PERICENTER": 332.0767, "MEAN_ANOMALY": 28.0153, "EPHEMERIS_TYPE": 0, "CLASSIFICATION_TYPE": "U", "NORAD_CAT_ID": 40716, "ELEMENT_SET_NO": 999, "REV_AT_EPOCH": 56199, "BSTAR": 9.7473e-05, "MEAN_MOTION_DOT": 7.89e-06, "MEAN_MOTION_DDOT": 0}, "tle": {"line1": "1 40716U 15032B   25345.17559708  .00000789  00000+0  97473-4 0  9997", "line2": "2 40716  97.6745 213.8677 0005494 332.0767  28.0153 14.85435252561990"}}, "geometry": {"type": "Point", "coordinates": [-153.76426698707954, 45.54729318688327]}}, {"type": "Feature", "properties": {"norad_id": 40717, "name": "DMC3-FM3", "group": "dmc", "lat": -68.15963737836267, "lon": -124.55687906164815, "alt_km": 617.0641029274439, "timestamp": "2025-12-11T10:53:15.552066+00:00", "meta": {"OBJECT_NAME": "DMC3-FM3", "OBJECT_ID": "2015-032C", "EPOCH": "2025-12-11T04:43:58.914624", "MEAN_MOTION": 14.85426584, "ECCENTRICITY": 0.0004784, "INCLINATION": 97.68, "RA_OF_ASC_NODE": 215.5205, "ARG_OF_PERICENTER": 334.2188, "MEAN_ANOMALY": 25.8789, "EPHEMERIS_TYPE": 0, "CLASSIFICATION_TYPE": "U", "NORAD_CAT_ID": 40717, "ELEMENT_SET_NO": 999, "REV_AT_EPOCH": 56200, "BSTAR": 0.00014762, "MEAN_MOTION_DOT": 1.22e-05, "MEAN_MOTION_DDOT": 0}, "tle": {"line1": "1 40717U 15032C   25345.19720966  .00001220  00000+0  14762-3 0  9996", "line2": "2 40717  97.6800 215.5205 0004784 334.2188  25.8789 14.85426584562002"}}, "geometry": {"type": "Point", "coordinates": [-124.55687906164815, -68.15963737836267]}}]}